{
  "type": "FeatureCollection",
  "features": [
    {
      "type": "Feature",
      "properties": {
        "norad_id": 66878,
        "name": "STARLINK-35866",
        "group": "last-30-days",
        "lat": -40.178083996688784,
        "lon": -12.66088367045749,
        "alt_km": 351.97567091324527,
        "timestamp": "2025-12-22T04:03:37.888596+00:00",
        "meta_object_name": "STARLINK-35866",
        "meta_object_id": "2025-283A",
        "meta_epoch": "2025-12-21T20:00:01.999008",
        "meta_mean_motion": 15.7420544,
        "meta_eccentricity": 0.0001001,
        "meta_inclination": 53.1577,
        "meta_ra_of_asc_node": 28.288,
        "meta_arg_of_pericenter": 95.1751,
        "meta_mean_anomaly": 106.8641,
        "meta_ephemeris_type": 0,
        "meta_classification_type": "U",
        "meta_norad_cat_id": 66878,
        "meta_element_set_no": 999,
        "meta_rev_at_epoch": 389,
        "meta_bstar": -0.00042849,
        "meta_mean_motion_dot": -0.00062959,
        "meta_mean_motion_ddot": 0,
        "tle_line1": "1 66878U 25283A   25355.83335647 -.00062959  00000+0 -42849-3 0  9996",
        "tle_line2": "2 66878  53.1577  28.2880 0001001  95.1751 106.8641 15.74205440  3891"
      },
      "geometry": {
        "type": "Point",
        "coordinates": [
          -12.66088367045749,
          -40.178083996688784
        ]
      }
    },
    {
      "type": "Feature",
      "properties": {
        "norad_id": 66879,
        "name": "STARLINK-35749",
        "group": "last-30-days",
        "lat": -37.74760799602238,
        "lon": -8.873520954014442,
        "alt_km": 351.75253661704664,
        "timestamp": "2025-12-22T04:03:37.888607+00:00",
        "meta_object_name": "STARLINK-35749",
        "meta_object_id": "2025-283B",
        "meta_epoch": "2025-12-21T20:00:01.999008",
        "meta_mean_motion": 15.74199772,
        "meta_eccentricity": 0.0001006,
        "meta_inclination": 53.1576,
        "meta_ra_of_asc_node": 28.2797,
        "meta_arg_of_pericenter": 83.4058,
        "meta_mean_anomaly": 122.4668,
        "meta_ephemeris_type": 0,
        "meta_classification_type": "U",
        "meta_norad_cat_id": 66879,
        "meta_element_set_no": 999,
        "meta_rev_at_epoch": 389,
        "meta_bstar": -0.0003604,
        "meta_mean_motion_dot": -0.00053103,
        "meta_mean_motion_ddot": 0,
        "tle_line1": "1 66879U 25283B   25355.83335647 -.00053103  00000+0 -36040-3 0  9994",
        "tle_line2": "2 66879  53.1576  28.2797 0001006  83.4058 122.4668 15.74199772  3896"
      },
      "geometry": {
        "type": "Point",
        "coordinates": [
          -8.873520954014442,
          -37.74760799602238
        ]
      }
    },
    {
      "type": "Feature",
      "properties": {
        "norad_id": 66880,
        "name": "STARLINK-35844",
        "group": "last-30-days",
        "lat": -38.976581068072676,
        "lon": -10.731721214641885,
        "alt_km": 351.899657715996,
        "timestamp": "2025-12-22T04:03:37.888617+00:00",
        "meta_object_name": "STARLINK-35844",
        "meta_object_id": "2025-283C",
        "meta_epoch": "2025-12-21T20:00:01.999008",
        "meta_mean_motion": 15.74205589,
        "meta_eccentricity": 0.000106,
        "meta_inclination": 53.1576,
        "meta_ra_of_asc_node": 28.2843,
        "meta_arg_of_pericenter": 88.6979,
        "meta_mean_anomaly": 115.26,
        "meta_ephemeris_type": 0,
        "meta_classification_type": "U",
        "meta_norad_cat_id": 66880,
        "meta_element_set_no": 999,
        "meta_rev_at_epoch": 389,
        "meta_bstar": -0.0004364,
        "meta_mean_motion_dot": -0.00064101,
        "meta_mean_motion_ddot": 0,
        "tle_line1": "1 66880U 25283C   25355.83335647 -.00064101  00000+0 -43640-3 0  9990",
        "tle_line2": "2 66880  53.1576  28.2843 0001060  88.6979 115.2600 15.74205589  3899"
      },
      "geometry": {
        "type": "Point",
        "coordinates": [
          -10.731721214641885,
          -38.976581068072676
        ]
      }
    },
    {
      "type": "Feature",
      "properties": {
        "norad_id": 66881,
        "name": "STARLINK-35860",
        "group": "last-30-days",
        "lat": -36.48566277479446,
        "lon": -7.070367739661867,
        "alt_km": 351.6882341662831,
        "timestamp": "2025-12-22T04:03:37.888627+00:00",
        "meta_object_name": "STARLINK-35860",
        "meta_object_id": "2025-283D",
        "meta_epoch": "2025-12-21T20:00:01.999008",
        "meta_mean_motion": 15.74205578,
        "meta_eccentricity": 9.44e-05,
        "meta_inclination": 53.1573,
        "meta_ra_of_asc_node": 28.2756,
        "meta_arg_of_pericenter": 89.0925,
        "meta_mean_anomaly": 118.6935,
        "meta_ephemeris_type": 0,
        "meta_classification_type": "U",
        "meta_norad_cat_id": 66881,
        "meta_element_set_no": 999,
        "meta_rev_at_epoch": 389,
        "meta_bstar": -0.00041709,
        "meta_mean_motion_dot": -0.00061313,
        "meta_mean_motion_ddot": 0,
        "tle_line1": "1 66881U 25283D   25355.83335647 -.00061313  00000+0 -41709-3 0  9997",
        "tle_line2": "2 66881  53.1573  28.2756 0000944  89.0925 118.6935 15.74205578  3892"
      },
      "geometry": {
        "type": "Point",
        "coordinates": [
          -7.070367739661867,
          -36.48566277479446
        ]
      }
    },
    {
      "type": "Feature",
      "properties": {
        "norad_id": 66882,
        "name": "STARLINK-35912",
        "group": "last-30-days",
        "lat": -35.19969888457182,
        "lon": -5.3272899170186445,
        "alt_km": 351.53950150077253,
        "timestamp": "2025-12-22T04:03:37.888637+00:00",
        "meta_object_name": "STARLINK-35912",
        "meta_object_id": "2025-283E",
        "meta_epoch": "2025-12-21T20:00:01.999008",
        "meta_mean_motion": 15.74202419,
        "meta_eccentricity": 0.0001181,
        "meta_inclination": 53.1574,
        "meta_ra_of_asc_node": 28.2725,
        "meta_arg_of_pericenter": 72.2335,
        "meta_mean_anomaly": 137.4737,
        "meta_ephemeris_type": 0,
        "meta_classification_type": "U",
        "meta_norad_cat_id": 66882,
        "meta_element_set_no": 999,
        "meta_rev_at_epoch": 389,
        "meta_bstar": -0.00038265,
        "meta_mean_motion_dot": -0.00056329,
        "meta_mean_motion_ddot": 0,
        "tle_line1": "1 66882U 25283E   25355.83335647 -.00056329  00000+0 -38265-3 0  9992",
        "tle_line2": "2 66882  53.1574  28.2725 0001181  72.2335 137.4737 15.74202419  3893"
      },
      "geometry": {
        "type": "Point",
        "coordinates": [
          -5.3272899170186445,
          -35.19969888457182
        ]
      }
    },
    {
      "type": "Feature",
      "properties": {
        "norad_id": 66883,
        "name": "STARLINK-35947",
        "group": "last-30-days",
        "lat": -33.889257871344554,
        "lon": -3.6397071217901633,
        "alt_km": 351.5247359172099,
        "timestamp": "2025-12-22T04:03:37.888649+00:00",
        "meta_object_name": "STARLINK-35947",
        "meta_object_id": "2025-283F",
        "meta_epoch": "2025-12-21T20:00:01.999008",
        "meta_mean_motion": 15.7420074,
        "meta_eccentricity": 0.0001007,
        "meta_inclination": 53.1575,
        "meta_ra_of_asc_node": 28.2686,
        "meta_arg_of_pericenter": 85.0867,
        "meta_mean_anomaly": 126.5354,
        "meta_ephemeris_type": 0,
        "meta_classification_type": "U",
        "meta_norad_cat_id": 66883,
        "meta_element_set_no": 999,
        "meta_rev_at_epoch": 393,
        "meta_bstar": -0.00039629,
        "meta_mean_motion_dot": -0.00058295,
        "meta_mean_motion_ddot": 0,
        "tle_line1": "1 66883U 25283F   25355.83335647 -.00058295  00000+0 -39629-3 0  9992",
        "tle_line2": "2 66883  53.1575  28.2686 0001007  85.0867 126.5354 15.74200740  3934"
      },
      "geometry": {
        "type": "Point",
        "coordinates": [
          -3.6397071217901633,
          -33.889257871344554
        ]
      }
    },
    {
      "type": "Feature",
      "properties": {
        "norad_id": 66884,
        "name": "STARLINK-36057",
        "group": "last-30-days",
        "lat": -31.195313111083166,
        "lon": -0.40859839230277134,
        "alt_km": 351.5453713109637,
        "timestamp": "2025-12-22T04:03:37.888661+00:00",
        "meta_object_name": "STARLINK-36057",
        "meta_object_id": "2025-283G",
        "meta_epoch": "2025-12-21T20:00:01.999008",
        "meta_mean_motion": 15.74205513,
        "meta_eccentricity": 0.0001145,
        "meta_inclination": 53.1574,
        "meta_ra_of_asc_node": 28.26,
        "meta_arg_of_pericenter": 103.1068,
        "meta_mean_anomaly": 112.3493,
        "meta_ephemeris_type": 0,
        "meta_classification_type": "U",
        "meta_norad_cat_id": 66884,
        "meta_element_set_no": 999,
        "meta_rev_at_epoch": 389,
        "meta_bstar": -0.00040863,
        "meta_mean_motion_dot": -0.00060092,
        "meta_mean_motion_ddot": 0,
        "tle_line1": "1 66884U 25283G   25355.83335647 -.00060092  00000+0 -40863-3 0  9993",
        "tle_line2": "2 66884  53.1574  28.2600 0001145 103.1068 112.3493 15.74205513  3893"
      },
      "geometry": {
        "type": "Point",
        "coordinates": [
          -0.40859839230277134,
          -31.195313111083166
        ]
      }
    }
  ]
}